[{"OBJECT_NAME":"ONEWEB-0264","OBJECT_ID":"2021-060R","EPOCH":"2026-01-10T22:43:05.178144","MEAN_MOTION":13.16595169,"ECCENTRICITY":0.00015928,"INCLINATION":87.9032,"RA_OF_ASC_NODE":260.0935,"ARG_OF_PERICENTER":67.9155,"MEAN_ANOMALY":292.2145,"EPHEMERIS_TYPE":0,"CLASSIFICATION_TYPE":"U","NORAD_CAT_ID":48982,"ELEMENT_SET_NO":999,"REV_AT_EPOCH":21890,"BSTAR":-0.00027344346,"MEAN_MOTION_DOT":-9.2e-7,"MEAN_MOTION_DDOT":0},{"OBJECT_NAME":"ONEWEB-0266","OBJECT_ID":"2021-060T","EPOCH":"2026-01-10T23:13:52.309056","MEAN_MOTION":13.16593987,"ECCENTRICITY":0.00013672,"INCLINATION":87.9034,"RA_OF_ASC_NODE":260.0775,"ARG_OF_PERICENTER":82.221,"MEAN_ANOMALY":277.9076,"EPHEMERIS_TYPE":0,"CLASSIFICATION_TYPE":"U","NORAD_CAT_ID":48984,"ELEMENT_SET_NO":999,"REV_AT_EPOCH":21889,"BSTAR":-8.5837101e-5,"MEAN_MOTION_DOT":-2.0e-7,"MEAN_MOTION_DDOT":0},{"OBJECT_NAME":"ONEWEB-0267","OBJECT_ID":"2021-060U","EPOCH":"2026-01-10T23:29:50.050464","MEAN_MOTION":13.16594166,"ECCENTRICITY":0.00014712,"INCLINATION":87.9032,"RA_OF_ASC_NODE":260.0733,"ARG_OF_PERICENTER":67.7238,"MEAN_ANOMALY":292.4048,"EPHEMERIS_TYPE":0,"CLASSIFICATION_TYPE":"U","NORAD_CAT_ID":48985,"ELEMENT_SET_NO":999,"REV_AT_EPOCH":21890,"BSTAR":0.0002226395,"MEAN_MOTION_DOT":9.8e-7,"MEAN_MOTION_DDOT":0},{"OBJECT_NAME":"ONEWEB-0268","OBJECT_ID":"2021-060V","EPOCH":"2026-01-10T22:44:13.607808","MEAN_MOTION":13.16594391,"ECCENTRICITY":0.00015438,"INCLINATION":87.9034,"RA_OF_ASC_NODE":260.0887,"ARG_OF_PERICENTER":74.4568,"MEAN_ANOMALY":285.6734,"EPHEMERIS_TYPE":0,"CLASSIFICATION_TYPE":"U","NORAD_CAT_ID":48986,"ELEMENT_SET_NO":999,"REV_AT_EPOCH":21916,"BSTAR":-0.00028329135,"MEAN_MOTION_DOT":-9.5e-7,"MEAN_MOTION_DDOT":0},{"OBJECT_NAME":"ONEWEB-0269","OBJECT_ID":"2021-060W","EPOCH":"2026-01-10T22:16:52.465728","MEAN_MOTION":13.16595717,"ECCENTRICITY":0.00017038,"INCLINATION":87.9026,"RA_OF_ASC_NODE":260.1117,"ARG_OF_PERICENTER":79.1733,"MEAN_ANOMALY":280.959,"EPHEMERIS_TYPE":0,"CLASSIFICATION_TYPE":"U","NORAD_CAT_ID":48987,"ELEMENT_SET_NO":999,"REV_AT_EPOCH":21893,"BSTAR":-0.00013388266,"MEAN_MOTION_DOT":-3.8e-7,"MEAN_MOTION_DDOT":0},{"OBJECT_NAME":"ONEWEB-0270","OBJECT_ID":"2021-060X","EPOCH":"2026-01-10T22:41:57.680736","MEAN_MOTION":13.16595069,"ECCENTRICITY":0.00011831,"INCLINATION":87.9035,"RA_OF_ASC_NODE":260.0907,"ARG_OF_PERICENTER":65.1515,"MEAN_ANOMALY":294.9739,"EPHEMERIS_TYPE":0,"CLASSIFICATION_TYPE":"U","NORAD_CAT_ID":48988,"ELEMENT_SET_NO":999,"REV_AT_EPOCH":21897,"BSTAR":-0.00026604834,"MEAN_MOTION_DOT":-8.9e-7,"MEAN_MOTION_DDOT":0},{"OBJECT_NAME":"ONEWEB-0271","OBJECT_ID":"2021-060Y","EPOCH":"2026-01-10T16:55:24.913344","MEAN_MOTION":13.16595309,"ECCENTRICITY":0.00014297,"INCLINATION":87.9038,"RA_OF_ASC_NODE":260.1283,"ARG_OF_PERICENTER":67.4698,"MEAN_ANOMALY":292.6584,"EPHEMERIS_TYPE":0,"CLASSIFICATION_TYPE":"U","NORAD_CAT_ID":48989,"ELEMENT_SET_NO":999,"REV_AT_EPOCH":21894,"BSTAR":-0.00012315839,"MEAN_MOTION_DOT":-3.4e-7,"MEAN_MOTION_DDOT":0},{"OBJECT_NAME":"ONEWEB-0272","OBJECT_ID":"2021-060Z","EPOCH":"2026-01-10T22:55:37.862976","MEAN_MOTION":13.16594129,"ECCENTRICITY":0.00016275,"INCLINATION":87.9031,"RA_OF_ASC_NODE":260.0919,"ARG_OF_PERICENTER":68.449,"MEAN_ANOMALY":291.6814,"EPHEMERIS_TYPE":0,"CLASSIFICATION_TYPE":"U","NORAD_CAT_ID":48990,"ELEMENT_SET_NO":999,"REV_AT_EPOCH":21892,"BSTAR":-0.00031489505,"MEAN_MOTION_DOT":-1.08e-6,"MEAN_MOTION_DDOT":0},{"OBJECT_NAME":"ONEWEB-0273","OBJECT_ID":"2021-060AA","EPOCH":"2026-01-10T23:27:33.840864","MEAN_MOTION":13.16595216,"ECCENTRICITY":0.00013357,"INCLINATION":87.9034,"RA_OF_ASC_NODE":260.0847,"ARG_OF_PERICENTER":70.8135,"MEAN_ANOMALY":289.314,"EPHEMERIS_TYPE":0,"CLASSIFICATION_TYPE":"U","NORAD_CAT_ID":48991,"ELEMENT_SET_NO":999,"REV_AT_EPOCH":21890,"BSTAR":6.027301e-5,"MEAN_MOTION_DOT":3.6e-7,"MEAN_MOTION_DDOT":0},{"OBJECT_NAME":"ONEWEB-0274","OBJECT_ID":"2021-060AB","EPOCH":"2026-01-10T22:14:35.844000","MEAN_MOTION":13.16594849,"ECCENTRICITY":0.0001813,"INCLINATION":87.9026,"RA_OF_ASC_NODE":260.1141,"ARG_OF_PERICENTER":70.3655,"MEAN_ANOMALY":289.7671,"EPHEMERIS_TYPE":0,"CLASSIFICATION_TYPE":"U","NORAD_CAT_ID":48992,"ELEMENT_SET_NO":999,"REV_AT_EPOCH":21893,"BSTAR":-9.7705839e-5,"MEAN_MOTION_DOT":-2.4e-7,"MEAN_MOTION_DDOT":0},{"OBJECT_NAME":"ONEWEB-0275","OBJECT_ID":"2021-060AC","EPOCH":"2026-01-10T21:58:38.108640","MEAN_MOTION":13.16595343,"ECCENTRICITY":0.00015072,"INCLINATION":87.9035,"RA_OF_ASC_NODE":260.0899,"ARG_OF_PERICENTER":71.7315,"MEAN_ANOMALY":288.398,"EPHEMERIS_TYPE":0,"CLASSIFICATION_TYPE":"U","NORAD_CAT_ID":48993,"ELEMENT_SET_NO":999,"REV_AT_EPOCH":21886,"BSTAR":0.00015400861,"MEAN_MOTION_DOT":7.2e-7,"MEAN_MOTION_DDOT":0},{"OBJECT_NAME":"ONEWEB-0276","OBJECT_ID":"2021-060AD","EPOCH":"2026-01-10T17:18:12.481056","MEAN_MOTION":13.16594619,"ECCENTRICITY":0.00013048,"INCLINATION":87.9036,"RA_OF_ASC_NODE":260.1283,"ARG_OF_PERICENTER":77.1249,"MEAN_ANOMALY":283.0028,"EPHEMERIS_TYPE":0,"CLASSIFICATION_TYPE":"U","NORAD_CAT_ID":48994,"ELEMENT_SET_NO":999,"REV_AT_EPOCH":21885,"BSTAR":-0.00021766552,"MEAN_MOTION_DOT":-7.0e-7,"MEAN_MOTION_DDOT":0},{"OBJECT_NAME":"ONEWEB-0277","OBJECT_ID":"2021-060AE","EPOCH":"2026-01-10T23:04:44.496768","MEAN_MOTION":13.16595416,"ECCENTRICITY":0.00014963,"INCLINATION":87.9024,"RA_OF_ASC_NODE":260.1017,"ARG_OF_PERICENTER":74.559,"MEAN_ANOMALY":285.5707,"EPHEMERIS_TYPE":0,"CLASSIFICATION_TYPE":"U","NORAD_CAT_ID":48995,"ELEMENT_SET_NO":999,"REV_AT_EPOCH":21887,"BSTAR":2.7718107e-5,"MEAN_MOTION_DOT":2.3e-7,"MEAN_MOTION_DDOT":0},{"OBJECT_NAME":"ONEWEB-0278","OBJECT_ID":"2021-060AF","EPOCH":"2026-01-10T22:51:04.800960","MEAN_MOTION":13.16595103,"ECCENTRICITY":0.00014529,"INCLINATION":87.9034,"RA_OF_ASC_NODE":260.0786,"ARG_OF_PERICENTER":85.1299,"MEAN_ANOMALY":274.9998,"EPHEMERIS_TYPE":0,"CLASSIFICATION_TYPE":"U","NORAD_CAT_ID":48996,"ELEMENT_SET_NO":999,"REV_AT_EPOCH":21900,"BSTAR":-0.00015714068,"MEAN_MOTION_DOT":-4.7e-7,"MEAN_MOTION_DDOT":0},{"OBJECT_NAME":"ONEWEB-0279","OBJECT_ID":"2021-060AG","EPOCH":"2026-01-10T23:02:28.523040","MEAN_MOTION":13.16594959,"ECCENTRICITY":0.00015072,"INCLINATION":87.9036,"RA_OF_ASC_NODE":260.0756,"ARG_OF_PERICENTER":64.9467,"MEAN_ANOMALY":295.182,"EPHEMERIS_TYPE":0,"CLASSIFICATION_TYPE":"U","NORAD_CAT_ID":48997,"ELEMENT_SET_NO":999,"REV_AT_EPOCH":21893,"BSTAR":-8.1085715e-5,"MEAN_MOTION_DOT":-1.8e-7,"MEAN_MOTION_DDOT":0},{"OBJECT_NAME":"ONEWEB-0280","OBJECT_ID":"2021-060AH","EPOCH":"2026-01-10T23:24:07.100352","MEAN_MOTION":13.1659333,"ECCENTRICITY":0.00011415,"INCLINATION":87.9034,"RA_OF_ASC_NODE":260.0782,"ARG_OF_PERICENTER":79.9171,"MEAN_ANOMALY":280.2089,"EPHEMERIS_TYPE":0,"CLASSIFICATION_TYPE":"U","NORAD_CAT_ID":48998,"ELEMENT_SET_NO":999,"REV_AT_EPOCH":21887,"BSTAR":0.0003825032,"MEAN_MOTION_DOT":1.59e-6,"MEAN_MOTION_DDOT":0}]
