ONEWEB-0264             
1 48982U 21060R   26010.94658771 -.00000092  00000+0 -27344-3 0  9991
2 48982  87.9032 260.0935 0001592  67.9155 292.2145 13.16595169218908
ONEWEB-0266             
1 48984U 21060T   26010.96796654 -.00000020  00000+0 -85837-4 0  9991
2 48984  87.9034 260.0775 0001367  82.2210 277.9076 13.16593987218893
ONEWEB-0267             
1 48985U 21060U   26010.97905151  .00000098  00000+0  22264-3 0  9994
2 48985  87.9032 260.0733 0001471  67.7238 292.4048 13.16594166218903
ONEWEB-0268             
1 48986U 21060V   26010.94737972 -.00000095  00000+0 -28329-3 0  9993
2 48986  87.9034 260.0887 0001543  74.4568 285.6734 13.16594391219162
ONEWEB-0269             
1 48987U 21060W   26010.92838502 -.00000038  00000+0 -13388-3 0  9999
2 48987  87.9026 260.1117 0001703  79.1733 280.9590 13.16595717218930
ONEWEB-0270             
1 48988U 21060X   26010.94580649 -.00000089  00000+0 -26605-3 0  9990
2 48988  87.9035 260.0907 0001183  65.1515 294.9739 13.16595069218976
ONEWEB-0271             
1 48989U 21060Y   26010.70514946 -.00000034  00000+0 -12316-3 0  9996
2 48989  87.9038 260.1283 0001429  67.4698 292.6584 13.16595309218945
ONEWEB-0272             
1 48990U 21060Z   26010.95529934 -.00000108  00000+0 -31490-3 0  9994
2 48990  87.9031 260.0919 0001627  68.4490 291.6814 13.16594129218928
ONEWEB-0273             
1 48991U 21060AA  26010.97747501  .00000036  00000+0  60273-4 0  9999
2 48991  87.9034 260.0847 0001335  70.8135 289.3140 13.16595216218903
ONEWEB-0274             
1 48992U 21060AB  26010.92680375 -.00000024  00000+0 -97706-4 0  9990
2 48992  87.9026 260.1141 0001813  70.3655 289.7671 13.16594849218933
ONEWEB-0275             
1 48993U 21060AC  26010.91571885  .00000072  00000+0  15401-3 0  9997
2 48993  87.9035 260.0899 0001507  71.7315 288.3980 13.16595343218861
ONEWEB-0276             
1 48994U 21060AD  26010.72097779 -.00000070  00000+0 -21767-3 0  9994
2 48994  87.9036 260.1283 0001304  77.1249 283.0028 13.16594619218851
ONEWEB-0277             
1 48995U 21060AE  26010.96162612  .00000023  00000+0  27718-4 0  9999
2 48995  87.9024 260.1017 0001496  74.5590 285.5707 13.16595416218875
ONEWEB-0278             
1 48996U 21060AF  26010.95213890 -.00000047  00000+0 -15714-3 0  9994
2 48996  87.9034 260.0786 0001452  85.1299 274.9998 13.16595103219008
ONEWEB-0279             
1 48997U 21060AG  26010.96005235 -.00000018  00000+0 -81086-4 0  9992
2 48997  87.9036 260.0756 0001507  64.9467 295.1820 13.16594959218939
ONEWEB-0280             
1 48998U 21060AH  26010.97508218  .00000159  00000+0  38250-3 0  9991
2 48998  87.9034 260.0782 0001141  79.9171 280.2089 13.16593330218876
